{
    "links": {
        "self": "http://www.neowsapp.com/rest/v1/neo/3092487?api_key=iIulBulltgU6a56xZRHN4H3l9WmuAYTsLGpBGhQ2"
    },
    "id": "3092487",
    "neo_reference_id": "3092487",
    "name": "(2001 VF75)",
    "designation": "2001 VF75",
    "nasa_jpl_url": "http://ssd.jpl.nasa.gov/sbdb.cgi?sstr=3092487",
    "absolute_magnitude_h": 21.613,
    "estimated_diameter": {
        "kilometers": {
            "estimated_diameter_min": 0.1264605239,
            "estimated_diameter_max": 0.2827743279
        },
        "meters": {
            "estimated_diameter_min": 126.4605238805,
            "estimated_diameter_max": 282.7743278669
        },
        "miles": {
            "estimated_diameter_min": 0.0785789022,
            "estimated_diameter_max": 0.1757077669
        },
        "feet": {
            "estimated_diameter_min": 414.8967451679,
            "estimated_diameter_max": 927.7373258389
        }
    },
    "is_potentially_hazardous_asteroid": false,
    "close_approach_data": [
        {
            "close_approach_date": "2001-12-01",
            "close_approach_date_full": "2001-Dec-01 16:41",
            "epoch_date_close_approach": 1007224860000,
            "relative_velocity": {
                "kilometers_per_second": "13.863944488",
                "kilometers_per_hour": "49910.2001568572",
                "miles_per_hour": "31012.2574252428"
            },
            "miss_distance": {
                "astronomical": "0.1637105534",
                "lunar": "63.6834052726",
                "kilometers": "24490750.085161258",
                "miles": "15217846.4420030404"
            },
            "orbiting_body": "Earth"
        },
        {
            "close_approach_date": "2002-03-22",
            "close_approach_date_full": "2002-Mar-22 09:32",
            "epoch_date_close_approach": 1016789520000,
            "relative_velocity": {
                "kilometers_per_second": "8.2313080649",
                "kilometers_per_hour": "29632.7090334977",
                "miles_per_hour": "18412.6130102864"
            },
            "miss_distance": {
                "astronomical": "0.4450808013",
                "lunar": "173.1364317057",
                "kilometers": "66583139.852373231",
                "miles": "41372844.6199673478"
            },
            "orbiting_body": "Earth"
        }
    ],
    "orbital_data": {
        "orbit_id": "10",
        "orbit_determination_date": "2017-04-06 09:15:51",
        "first_observation_date": "2001-11-11",
        "last_observation_date": "2001-11-20",
        "data_arc_in_days": 9,
        "observations_used": 28,
        "orbit_uncertainty": "9",
        "minimum_orbit_intersection": ".153083",
        "jupiter_tisserand_invariant": "3.481",
        "epoch_osculation": "2452229.5",
        "eccentricity": ".5579693674585248",
        "semi_major_axis": "2.090618076485851",
        "inclination": "19.40548057721386",
        "ascending_node_longitude": "48.16084395136154",
        "orbital_period": "1104.105259442794",
        "perihelion_distance": ".9241172307516831",
        "perihelion_argument": "74.01951758426341",
        "aphelion_distance": "3.257118922220019",
        "perihelion_time": "2452289.534000518468",
        "mean_anomaly": "340.4255617824378",
        "mean_motion": ".3260558691493603",
        "equinox": "J2000",
        "orbit_class": {
            "orbit_class_type": "APO",
            "orbit_class_description": "Near-Earth asteroid orbits which cross the Earth’s orbit similar to that of 1862 Apollo",
            "orbit_class_range": "a (semi-major axis) > 1.0 AU; q (perihelion) < 1.017 AU"
        }
    },
    "is_sentry_object": false
}